IRIDIUM 154             
1 43574U 18061F   26165.44085918  .00000218  00000+0  70859-4 0  9991
2 43574  86.3966  57.9553 0002108  87.3547 272.7891 14.34219474413016
IRIDIUM 163             
1 43575U 18061G   26165.42182877  .00000097  00000+0  27533-4 0  9998
2 43575  86.3960  57.8785 0002264  83.6377 276.5077 14.34216590412989
IRIDIUM 156             
1 43576U 18061H   26165.39646278  .00000215  00000+0  69760-4 0  9995
2 43576  86.3960  57.8963 0002060  81.1435 278.9994 14.34218101412973
IRIDIUM 164             
1 43577U 18061J   26165.44720432  .00000090  00000+0  25192-4 0  9999
2 43577  86.3963  57.9155 0002109  88.8695 271.2743 14.34217976413021
IRIDIUM 159             
1 43578U 18061K   26165.41549162  .00000123  00000+0  36953-4 0  9990
2 43578  86.3961  57.8655 0002281  84.0650 276.0806 14.34217872412986
IRIDIUM 180             
1 43922U 19002A   26165.55452461  .00000009  00000+0 -37173-5 0  9999
2 43922  86.3967 354.6983 0002159  89.1479 270.9964 14.34217513388618
IRIDIUM 176             
1 43923U 19002B   26165.57618398  .00000681  00000+0  10408-3 0  9990
2 43923  86.6090 354.6332 0002266  92.3934 267.7543 14.72263905398861
IRIDIUM 168             
1 43924U 19002C   26165.54818173  .00000053  00000+0  11794-4 0  9994
2 43924  86.3973 354.7784 0002171  89.1007 271.0438 14.34218079388591
IRIDIUM 173             
1 43925U 19002D   26165.53549698  .00000065  00000+0  16043-4 0  9992
2 43925  86.3968 354.6724 0002211  87.0976 273.0473 14.34217689388571
IRIDIUM 169             
1 43926U 19002E   26165.53956929  .00000249  00000+0  74891-4 0  9991
2 43926  86.4226  26.3004 0001946  71.7732 288.3678 14.38607852389844
IRIDIUM 172             
1 43927U 19002F   26165.59892219  .00000126  00000+0  38043-4 0  9992
2 43927  86.3969 354.6540 0002256  89.1295 271.0159 14.34217631388594
IRIDIUM 175             
1 43928U 19002G   26165.64187663  .00000270  00000+0  73884-4 0  9991
2 43928  86.4510 291.5850 0002157 187.7765 172.3403 14.43611405398614
IRIDIUM 171             
1 43929U 19002H   26165.57989488 -.00000115  00000+0 -48078-4 0  9996
2 43929  86.3976 354.9678 0001888  88.9732 271.1681 14.34216675388589
IRIDIUM 170             
1 43930U 19002J   26165.58236543  .00000683  00000+0  10437-3 0  9991
2 43930  86.6090 354.6331 0002356  88.6967 271.4520 14.72264390398879
IRIDIUM 167             
1 43931U 19002K   26165.57355158  .00000011  00000+0 -30196-5 0  9997
2 43931  86.3967 354.6868 0001748  89.5799 270.5597 14.34217620388585
IRIDIUM 181             
1 56726U 23068S   26165.40260893  .00000274  00000+0  75468-4 0  9993
2 56726  86.4501  57.9545 0002288  89.3466 270.7997 14.43311459162031
IRIDIUM 177             
1 56727U 23068T   26165.48330736  .00000975  00000+0  12479-3 0  9996
2 56727  86.1959 330.0758 0002387  87.2073 272.9422 14.80225807165962
IRIDIUM 174             
1 56728U 23068U   26165.57002229  .00000707  00000+0  10826-3 0  9997
2 56728  86.6098 354.7854 0002494  84.3694 275.7807 14.72260677165635
IRIDIUM 178             
1 56729U 23068V   26165.54004183  .00000870  00000+0  11104-3 0  9997
2 56729  86.6539  26.4665 0002656  86.7790 273.3735 14.80229664165973
IRIDIUM 179             
1 56730U 23068W   26165.60224629  .00000655  00000+0  82709-4 0  9996
2 56730  86.6781  35.4129 0002444  88.8141 271.3361 14.80232954165987
