OBJECT_NAME,OBJECT_ID,EPOCH,MEAN_MOTION,ECCENTRICITY,INCLINATION,RA_OF_ASC_NODE,ARG_OF_PERICENTER,MEAN_ANOMALY,EPHEMERIS_TYPE,CLASSIFICATION_TYPE,NORAD_CAT_ID,ELEMENT_SET_NO,REV_AT_EPOCH,BSTAR,MEAN_MOTION_DOT,MEAN_MOTION_DDOT
IRIDIUM 154,2018-061F,2026-06-14T10:34:50.233152,14.34219474,.00021087,86.3966,57.9553,87.3547,272.7891,0,U,43574,999,41301,.70858786E-4,.218E-5,0
IRIDIUM 163,2018-061G,2026-06-14T10:07:26.005728,14.34216590,.00022642,86.3960,57.8785,83.6377,276.5077,0,U,43575,999,41298,.27533184E-4,.97E-6,0
IRIDIUM 156,2018-061H,2026-06-14T09:30:54.384192,14.34218101,.00020608,86.3960,57.8963,81.1435,278.9994,0,U,43576,999,41297,.69760392E-4,.215E-5,0
IRIDIUM 164,2018-061J,2026-06-14T10:43:58.453248,14.34217976,.00021092,86.3963,57.9155,88.8695,271.2743,0,U,43577,999,41302,.25191973E-4,.9E-6,0
IRIDIUM 159,2018-061K,2026-06-14T09:58:18.475968,14.34217872,.00022815,86.3961,57.8655,84.0650,276.0806,0,U,43578,999,41298,.36952577E-4,.123E-5,0
IRIDIUM 180,2019-002A,2026-06-14T13:18:30.926304,14.34217513,.00021594,86.3967,354.6983,89.1479,270.9964,0,U,43922,999,38861,-.371731E-5,.9E-7,0
IRIDIUM 176,2019-002B,2026-06-14T13:49:42.295872,14.72263905,.0002266,86.6090,354.6332,92.3934,267.7543,0,U,43923,999,39886,.10408024E-3,.681E-5,0
IRIDIUM 168,2019-002C,2026-06-14T13:09:22.901472,14.34218079,.00021719,86.3973,354.7784,89.1007,271.0438,0,U,43924,999,38859,.11794125E-4,.53E-6,0
IRIDIUM 173,2019-002D,2026-06-14T12:51:06.939072,14.34217689,.00022119,86.3968,354.6724,87.0976,273.0473,0,U,43925,999,38857,.16043415E-4,.65E-6,0
IRIDIUM 169,2019-002E,2026-06-14T12:56:58.786656,14.38607852,.0001946,86.4226,26.3004,71.7732,288.3678,0,U,43926,999,38984,.74891316E-4,.249E-5,0
IRIDIUM 172,2019-002F,2026-06-14T14:22:26.877216,14.34217631,.00022561,86.3969,354.6540,89.1295,271.0159,0,U,43927,999,38859,.38043398E-4,.126E-5,0
IRIDIUM 175,2019-002G,2026-06-14T15:24:18.140832,14.43611405,.00021576,86.4510,291.5850,187.7765,172.3403,0,U,43928,999,39861,.73883577E-4,.27E-5,0
IRIDIUM 171,2019-002H,2026-06-14T13:55:02.917632,14.34216675,.00018881,86.3976,354.9678,88.9732,271.1681,0,U,43929,999,38858,-.48077676E-4,-.115E-5,0
IRIDIUM 170,2019-002J,2026-06-14T13:58:36.373152,14.72264390,.0002356,86.6090,354.6331,88.6967,271.4520,0,U,43930,999,39887,.1043732E-3,.683E-5,0
IRIDIUM 167,2019-002K,2026-06-14T13:45:54.856512,14.34217620,.00017482,86.3967,354.6868,89.5799,270.5597,0,U,43931,999,38858,-.3019624E-5,.11E-6,0
IRIDIUM 181,2023-068S,2026-06-14T09:39:45.411552,14.43311459,.00022881,86.4501,57.9545,89.3466,270.7997,0,U,56726,999,16203,.75467822E-4,.274E-5,0
IRIDIUM 177,2023-068T,2026-06-14T11:35:57.755904,14.80225807,.00023877,86.1959,330.0758,87.2073,272.9422,0,U,56727,999,16596,.12478861E-3,.975E-5,0
IRIDIUM 174,2023-068U,2026-06-14T13:40:49.925856,14.72260677,.00024949,86.6098,354.7854,84.3694,275.7807,0,U,56728,999,16563,.10826453E-3,.707E-5,0
IRIDIUM 178,2023-068V,2026-06-14T12:57:39.614112,14.80229664,.00026565,86.6539,26.4665,86.7790,273.3735,0,U,56729,999,16597,.11104258E-3,.87E-5,0
IRIDIUM 179,2023-068W,2026-06-14T14:27:14.079456,14.80232954,.00024446,86.6781,35.4129,88.8141,271.3361,0,U,56730,999,16598,.8270948E-4,.655E-5,0
